ONEWEB-0446             
1 51640U 22012U   24275.17721040  .00002138  00000+0  60876-2 0  9997
2 51640  87.8969 160.4854 0002105  66.6404 293.4945 13.10357696128904
ONEWEB-0448             
1 51641U 22012V   24275.18217799 -.00000468  00000+0 -13759-2 0  9994
2 51641  87.8970 160.4848 0001737  80.1831 279.9492 13.10373214128860
ONEWEB-0449             
1 51642U 22012W   24275.41623474 -.00000368  00000+0 -10916-2 0  9993
2 51642  87.8967 160.4285 0001577  69.8385 290.2912 13.10375252128915
ONEWEB-0451             
1 51643U 22012X   24274.55791843 -.00000019  00000+0 -81269-4 0  9998
2 51643  87.9103 130.2762 0001588  81.8133 278.3179 13.17646738132702
ONEWEB-0452             
1 51644U 22012Y   24275.16372378  .00000233  00000+0  56751-3 0  9998
2 51644  87.9104 130.2018 0001308  83.8365 276.2916 13.17648398132796
ONEWEB-0456             
1 51646U 22012AA  24275.19712780  .00000049  00000+0  10553-3 0  9993
2 51646  87.8964 160.4397 0001986  79.6534 280.4817 13.10374546128919
ONEWEB-0457             
1 51647U 22012AB  24275.17388033 -.00000578  00000+0 -16910-2 0  9993
2 51647  87.8976 160.4752 0001674  66.4211 293.7092 13.10371078128928
ONEWEB-0458             
1 51648U 22012AC  24275.19547432  .00000125  00000+0  32128-3 0  9992
2 51648  87.8972 160.4884 0001562  79.1412 280.9891 13.10375614128881
